STARLINK-3855           
1 52474U 22049Z   26080.30678521  .01989498  45088-2  12654-2 0  9992
2 52474  53.2083 336.1061 0004047 231.0500 129.0179 16.18070688214439
NUSAT-31 (RUBY PAYNE-S) 
1 52752U 22057W   26080.25814874  .00758643  27708-3  13362-2 0  9999
2 52752  97.6399 251.3067 0006468 279.9884  80.0664 16.02020979213816
STARLINK-4038           
1 53150U 22083U   26080.18895571  .00792551  33307-3  10497-2 0  9990
2 53150  53.1989  60.9252 0009398  53.8780 306.3123 16.06110070203819
STARLINK-4404           
1 53195U 22084G   26080.21392233  .00297853  40608-4  51036-3 0  9994
2 53195  97.6110 167.6592 0001300   1.4384 358.6899 16.02496231203310
STARLINK-4407           
1 53196U 22084H   26080.23859567  .00290701  39538-4  45688-3 0  9996
2 53196  97.6052 168.2262 0002951 295.2116  64.8857 16.03952930203332
STARLINK-4057           
1 53269U 22086AD  26080.15719551  .00861833  43549-3  84094-3 0  9998
2 53269  53.2109 114.6618 0003295  17.0869 343.0278 16.10960865203187
STARLINK-4361           
1 53493U 22099AE  26080.30006351  .00297841  42075-4  44030-3 0  9997
2 53493  97.6495 221.7938 0002987 105.2265 254.9346 16.04971863198922
STARLINK-4465           
1 53496U 22099AH  26080.25003472  .00393210  62571-4  10921-2 0  9996
2 53496  97.6406 228.4356 0002955 338.4409 178.6669 15.93761189  5944
STARLINK-4461           
1 53503U 22099AQ  26079.88926260  .00691162  23151-3  11250-2 0  9994
2 53503  97.6372 228.7563 0000265  81.2341 278.8968 16.03399815199346
STARLINK-4469           
1 53657U 22105K   26080.28204767  .00607278  16799-3  11638-2 0  9994
2 53657  97.6278 347.4455 0004116 169.6791 190.4572 16.00553710196541
STARLINK-5024           
1 53901U 22119R   26080.27875444  .00764483  25921-3  19782-2 0  9993
2 53901  53.1998 183.7622 0008709 357.5628   2.5357 15.94503167194685
STARLINK-5092           
1 55408U 23014T   26080.08939692  .01332193  41751-5  78330-3 0  9993
2 55408  69.9985  17.7899 0005378 221.4097 138.6717 16.18432286174207
2023-085AF              
1 57033U 23085AF  26080.16092570  .01234135  86795-3  19070-2 0  9998
2 57033  97.4778 212.0338 0014395 287.7003  72.2705 16.04218876154613
QIANKUN-1               
1 57422U 23103B   26078.66353278  .00015727  16674-5  17409-4 0  9998
2 57422  96.1906 129.5554 0046381 154.4560 205.9032 16.07679990152914
2023-104B               
1 57425U 23104B   26080.22550206  .00775702  32163-3  95284-3 0  9998
2 57425  97.2696 170.0709 0009325 288.3872  71.6397 16.07939668149928
INTUITION-1             
1 58565U 23174CW  26079.88221990  .01615254  22334-2  12746-2 0  9991
2 58565  97.3584 177.5008 0007385 276.1042  83.9402 16.15163977132671
STARLINK-31299          
1 59080U 24041G   26080.55799942  .01292043  88233-3  23818-2 0  9991
2 59080  42.9771 117.1840 0020657  84.2413 276.0819 16.00100985117572
SENTRY                  
1 59140U 24043AU  26079.94850954  .01191404  90737-3  12613-2 0  9994
2 59140  97.5258 235.7314 0006443 290.5063  69.5529 16.10464267114867
STARLINK-31867          
1 60139U 24120E   26080.25003472  .00648239  18823-3  15607-2 0  9995
2 60139  53.1357 244.2708 0011622 267.2569 318.4963 15.95774215  5859
STARLINK-11331 [DTC]    
1 61537U 24184F   26080.25003472  .00510345  11570-3  13322-2 0  9998
2 61537  53.1474 176.0729 0012819 356.7065  92.4390 15.94257328  6035
STARLINK-11687 [DTC]    
1 63555U 25075H   26080.25003472  .00616032  16884-3  13489-2 0  9997
2 63555  42.9884  79.9276 0010492 135.9312 201.3694 15.97243238  5870
COSMOS 2591             
1 65267U 25182A   26079.97195725  .00117537  71318-5  28254-3 0  9996
2 65267  96.5888  12.9779 0010746 125.8407 234.3871 15.96417784 33626
COSMOS 2592             
1 65268U 25182B   26078.35781309  .00005207  18605-5  13907-4 0  9997
2 65268  96.5913  11.3505 0009052 127.1060 233.1047 15.96376735 33367
COSMOS 2593             
1 65269U 25182C   26079.87794831  .00014677  19343-5  36552-4 0  9992
2 65269  96.5904  12.8133 0008711 123.4221 236.7891 15.96430237 33601
COSMOS 2594             
1 65270U 25182D   26078.63991332 -.00000545  18472-5  93104-7 0  9993
2 65270  96.5898  11.5786 0008793 121.4080 238.8060 15.96414326 33428
STARLINK-34411          
1 65414U 25192L   26080.25003472  .00537396  12903-3  13400-2 0  9999
2 65414  53.1346 161.1197 0013021 342.7125  82.3056 15.95101204  5671
STARLINK-36604          
1 68142U 26049A   26078.57838178 -.00601426  12954-3 -10855-2 0  9998
2 68142  97.2797  98.1391 0000555  65.4234 294.7104 16.01563866   968
